[{"OBJECT_NAME":"XINGCHI-1 02B","OBJECT_ID":"2023-187C","EPOCH":"2026-03-09T22:36:06.861312","MEAN_MOTION":14.854851,"ECCENTRICITY":0.00120604,"INCLINATION":97.9317,"RA_OF_ASC_NODE":153.3872,"ARG_OF_PERICENTER":104.6634,"MEAN_ANOMALY":255.5919,"EPHEMERIS_TYPE":0,"CLASSIFICATION_TYPE":"U","NORAD_CAT_ID":58498,"ELEMENT_SET_NO":999,"REV_AT_EPOCH":12244,"BSTAR":0.00027337967,"MEAN_MOTION_DOT":2.307e-5,"MEAN_MOTION_DDOT":0},{"OBJECT_NAME":"SVOM","OBJECT_ID":"2024-116B","EPOCH":"2026-03-09T23:40:42.296160","MEAN_MOTION":14.83280449,"ECCENTRICITY":0.00053838,"INCLINATION":28.9973,"RA_OF_ASC_NODE":24.3307,"ARG_OF_PERICENTER":105.8209,"MEAN_ANOMALY":254.2978,"EPHEMERIS_TYPE":0,"CLASSIFICATION_TYPE":"U","NORAD_CAT_ID":60089,"ELEMENT_SET_NO":999,"REV_AT_EPOCH":9285,"BSTAR":0.00025701068,"MEAN_MOTION_DOT":2.275e-5,"MEAN_MOTION_DDOT":0}]
